{
  "norad_id": 54640,
  "name": "GAOFEN-5 01A",
  "history": [
    {
      "epoch": "2026-03-27T05:15:56.092608",
      "apogee_km": 700.6377143291156,
      "perigee_km": 699.74018259885,
      "latitude_deg": -16.380019070635523,
      "longitude_deg": -70.93767488002777,
      "semi_major_axis_km": 7078.325948463983,
      "eccentricity": 6.34e-05,
      "inclination_deg": 98.2299,
      "raan_deg": 24.4206,
      "arg_perigee_deg": 129.973,
      "mean_anomaly_deg": 230.1525,
      "mean_motion_rev_day": 14.57830143
    }
  ]
}