{"fetched_at":"2026-03-29T02:12:04Z","count":15717,"tles":[{"name":"GAOFEN-5 01A","line1":"1 54640U 22165A   26086.21939922  .00000529  00000+0  12560-3 0  9996","line2":"2 54640  98.2299  24.4206 0000634 129.9730 230.1525 14.57830143175470","category":"Other"}]}